[ {"OBJECT_NAME": "SKYSAT-A", "NORAD_CAT_ID": 39418, "MEAN_MOTION": 15.12379022, "ECCENTRICITY": 0.0020069, "INCLINATION": 97.3952, "RA_OF_ASC_NODE": 124.1299, "ARG_OF_PERICENTER": 289.4072, "MEAN_ANOMALY": 70.499, "BSTAR": 0.0002419, "EPOCH": "2026-03-12T16:17:48"}, {"OBJECT_NAME": "SKYSAT-B", "NORAD_CAT_ID": 40072, "MEAN_MOTION": 14.87741203, "ECCENTRICITY": 0.0004526, "INCLINATION": 98.3727, "RA_OF_ASC_NODE": 25.3764, "ARG_OF_PERICENTER": 220.9442, "MEAN_ANOMALY": 139.1434, "BSTAR": 0.00026118999999999996, "EPOCH": "2026-03-12T19:45:38"}, {"OBJECT_NAME": "SKYSAT-C1", "NORAD_CAT_ID": 41601, "MEAN_MOTION": 15.34579698, "ECCENTRICITY": 0.0003318, "INCLINATION": 96.9703, "RA_OF_ASC_NODE": 108.6412, "ARG_OF_PERICENTER": 46.8686, "MEAN_ANOMALY": 313.2835, "BSTAR": 0.00030730000000000004, "EPOCH": "2026-03-12T15:14:45"}, {"OBJECT_NAME": "SKYSAT-C4", "NORAD_CAT_ID": 41771, "MEAN_MOTION": 15.45499958, "ECCENTRICITY": 0.0001169, "INCLINATION": 96.9291, "RA_OF_ASC_NODE": 97.9154, "ARG_OF_PERICENTER": 127.1673, "MEAN_ANOMALY": 232.9684, "BSTAR": 0.00038268000000000004, "EPOCH": "2026-03-12T22:58:59"}, {"OBJECT_NAME": "SKYSAT-C5", "NORAD_CAT_ID": 41772, "MEAN_MOTION": 15.3435329, "ECCENTRICITY": 0.0001665, "INCLINATION": 97.0615, "RA_OF_ASC_NODE": 116.5685, "ARG_OF_PERICENTER": 86.9951, "MEAN_ANOMALY": 273.1483, "BSTAR": 0.00028166000000000004, "EPOCH": "2026-03-12T15:07:05"}, {"OBJECT_NAME": "SKYSAT-C2", "NORAD_CAT_ID": 41773, "MEAN_MOTION": 15.39788112, "ECCENTRICITY": 0.0004844, "INCLINATION": 97.0282, "RA_OF_ASC_NODE": 97.4666, "ARG_OF_PERICENTER": 62.0869, "MEAN_ANOMALY": 298.0868, "BSTAR": 0.00034027000000000005, "EPOCH": "2026-03-12T15:11:12"}, {"OBJECT_NAME": "SKYSAT-C3", "NORAD_CAT_ID": 41774, "MEAN_MOTION": 15.48464956, "ECCENTRICITY": 0.0001758, "INCLINATION": 96.9179, "RA_OF_ASC_NODE": 106.3442, "ARG_OF_PERICENTER": 112.3442, "MEAN_ANOMALY": 247.7996, "BSTAR": 0.00041287, "EPOCH": "2026-03-12T14:17:33"}, {"OBJECT_NAME": "SKYSAT-C11", "NORAD_CAT_ID": 42987, "MEAN_MOTION": 15.52628, "ECCENTRICITY": 5.32e-05, "INCLINATION": 97.4206, "RA_OF_ASC_NODE": 216.8986, "ARG_OF_PERICENTER": 77.8422, "MEAN_ANOMALY": 282.2891, "BSTAR": 0.0005607499999999999, "EPOCH": "2026-03-12T19:27:07"}, {"OBJECT_NAME": "SKYSAT-C10", "NORAD_CAT_ID": 42988, "MEAN_MOTION": 15.32763192, "ECCENTRICITY": 9.9e-05, "INCLINATION": 97.4337, "RA_OF_ASC_NODE": 207.9265, "ARG_OF_PERICENTER": 93.6981, "MEAN_ANOMALY": 266.4374, "BSTAR": 0.00040126, "EPOCH": "2026-03-12T19:12:20"}, {"OBJECT_NAME": "SKYSAT-C8", "NORAD_CAT_ID": 42990, "MEAN_MOTION": 15.34849583, "ECCENTRICITY": 0.000121, "INCLINATION": 97.4356, "RA_OF_ASC_NODE": 206.8952, "ARG_OF_PERICENTER": 95.1947, "MEAN_ANOMALY": 264.9434, "BSTAR": 0.00041110999999999996, "EPOCH": "2026-03-12T07:46:36"}, {"OBJECT_NAME": "SKYSAT-C7", "NORAD_CAT_ID": 42991, "MEAN_MOTION": 15.34815519, "ECCENTRICITY": 0.0007304, "INCLINATION": 97.4367, "RA_OF_ASC_NODE": 208.3947, "ARG_OF_PERICENTER": 94.2199, "MEAN_ANOMALY": 265.9879, "BSTAR": 0.00039872999999999997, "EPOCH": "2026-03-12T20:03:31"}, {"OBJECT_NAME": "SKYSAT-C6", "NORAD_CAT_ID": 42992, "MEAN_MOTION": 15.32572512, "ECCENTRICITY": 0.0003714, "INCLINATION": 97.4399, "RA_OF_ASC_NODE": 208.2118, "ARG_OF_PERICENTER": 121.7106, "MEAN_ANOMALY": 238.4499, "BSTAR": 0.0004073, "EPOCH": "2026-03-12T09:06:40"}, {"OBJECT_NAME": "SKYSAT-C12", "NORAD_CAT_ID": 43797, "MEAN_MOTION": 15.45733636, "ECCENTRICITY": 0.0005818, "INCLINATION": 96.9381, "RA_OF_ASC_NODE": 99.2636, "ARG_OF_PERICENTER": 129.5455, "MEAN_ANOMALY": 230.6311, "BSTAR": 0.00040006000000000004, "EPOCH": "2026-03-12T23:53:37"}, {"OBJECT_NAME": "TANDEM-X", "NORAD_CAT_ID": 36605, "MEAN_MOTION": 15.19155964, "ECCENTRICITY": 0.0001864, "INCLINATION": 97.4475, "RA_OF_ASC_NODE": 80.6448, "ARG_OF_PERICENTER": 96.5465, "MEAN_ANOMALY": 263.5981, "BSTAR": 8.3275e-05, "EPOCH": "2026-03-12T13:30:38"}, {"OBJECT_NAME": "DMSP 5D-3 F18 (USA 210)", "NORAD_CAT_ID": 35951, "MEAN_MOTION": 14.14838255, "ECCENTRICITY": 0.0011316, "INCLINATION": 98.8967, "RA_OF_ASC_NODE": 52.9838, "ARG_OF_PERICENTER": 159.0723, "MEAN_ANOMALY": 201.0915, "BSTAR": 0.00018853, "EPOCH": "2026-03-12T23:10:14"}, {"OBJECT_NAME": "AEHF-1 (USA 214)", "NORAD_CAT_ID": 36868, "MEAN_MOTION": 1.00269589, "ECCENTRICITY": 0.0004343, "INCLINATION": 7.9805, "RA_OF_ASC_NODE": 69.3033, "ARG_OF_PERICENTER": 282.3643, "MEAN_ANOMALY": 82.2041, "BSTAR": 0.0, "EPOCH": "2026-03-12T15:34:31"}, {"OBJECT_NAME": "AEHF-2 (USA 235)", "NORAD_CAT_ID": 38254, "MEAN_MOTION": 1.00272809, "ECCENTRICITY": 0.0003131, "INCLINATION": 6.4271, "RA_OF_ASC_NODE": 58.1858, "ARG_OF_PERICENTER": 282.1904, "MEAN_ANOMALY": 95.2392, "BSTAR": 0.0, "EPOCH": "2026-03-12T18:46:43"}, {"OBJECT_NAME": "AEHF-5 (USA 292)", "NORAD_CAT_ID": 44481, "MEAN_MOTION": 1.00269627, "ECCENTRICITY": 0.0071225, "INCLINATION": 1.5539, "RA_OF_ASC_NODE": 329.2482, "ARG_OF_PERICENTER": 3.3882, "MEAN_ANOMALY": 220.3078, "BSTAR": 0.0, "EPOCH": "2026-03-12T19:17:47"}, {"OBJECT_NAME": "AEHF-4 (USA 288)", "NORAD_CAT_ID": 43651, "MEAN_MOTION": 1.00270539, "ECCENTRICITY": 0.0064009, "INCLINATION": 1.4222, "RA_OF_ASC_NODE": 355.3714, "ARG_OF_PERICENTER": 359.1771, "MEAN_ANOMALY": 52.1495, "BSTAR": 0.0, "EPOCH": "2026-03-12T20:14:57"}, {"OBJECT_NAME": "WGS F7 (USA 263)", "NORAD_CAT_ID": 40746, "MEAN_MOTION": 1.0026956, "ECCENTRICITY": 3.31e-05, "INCLINATION": 0.0102, "RA_OF_ASC_NODE": 125.847, "ARG_OF_PERICENTER": 259.3514, "MEAN_ANOMALY": 92.7311, "BSTAR": 0.0, "EPOCH": "2026-03-12T08:51:38"}, {"OBJECT_NAME": "SBSS (USA 216)", "NORAD_CAT_ID": 37168, "MEAN_MOTION": 15.15755191, "ECCENTRICITY": 0.0082509, "INCLINATION": 97.7475, "RA_OF_ASC_NODE": 315.5523, "ARG_OF_PERICENTER": 174.1816, "MEAN_ANOMALY": 311.3892, "BSTAR": 0.00025053, "EPOCH": "2026-03-12T23:42:37"}]