DMSP 5D-3 F18 (USA 210) 
1 35951U 09057A   26071.96545061  .00000319  00000+0  18853-3 0  9996
2 35951  98.8967  52.9838 0011316 159.0723 201.0915 14.14838255845989
TANDEM-X                
1 36605U 10030A   26071.56295076  .00001682  00000+0  83275-4 0  9995
2 36605  97.4475  80.6448 0001864  96.5465 263.5981 15.19155964871974
AEHF-1 (USA 214)        
1 36868U 10039A   26071.64897661  .00000150  00000+0  00000+0 0  9991
2 36868   7.9805  69.3033 0004343 282.3643  82.2041  1.00269589 52697
SBSS (USA 216)          
1 37168U 10048A   26071.98793184  .00005133  00000+0  25053-3 0  9992
2 37168  97.7475 315.5523 0082509 174.1816 311.3892 15.15755191837894
AEHF-2 (USA 235)        
1 38254U 12019A   26071.78244388 -.00000132  00000+0  00000+0 0  9990
2 38254   6.4271  58.1858 0003131 282.1904  95.2392  1.00272809  6020
SKYSAT-A                
1 39418U 13066C   26071.67903352  .00004153  00000+0  24190-3 0  9993
2 39418  97.3952 124.1299 0020069 289.4072  70.4990 15.12379022673893
SKYSAT-B                
1 40072U 14037D   26071.82336781  .00002321  00000+0  26119-3 0  9991
2 40072  98.3727  25.3764 0004526 220.9442 139.1434 14.87741203631639
WGS F7 (USA 263)        
1 40746U 15036A   26071.36919909  .00000018  00000+0  00000+0 0  9995
2 40746   0.0102 125.8470 0000331 259.3514  92.7311  1.00269560 38901
SKYSAT-C1               
1 41601U 16040C   26071.63524638  .00010226  00000+0  30730-3 0  9992
2 41601  96.9703 108.6412 0003318  46.8686 313.2835 15.34579698543052
SKYSAT-C4               
1 41771U 16058B   26071.95762873  .00018287  00000+0  38268-3 0  9998
2 41771  96.9291  97.9154 0001169 127.1673 232.9684 15.45499958530592
SKYSAT-C5               
1 41772U 16058C   26071.62992692  .00009296  00000+0  28166-3 0  9993
2 41772  97.0615 116.5685 0001665  86.9951 273.1483 15.34353290528940
SKYSAT-C2               
1 41773U 16058D   26071.63278255  .00013416  00000+0  34027-3 0  9999
2 41773  97.0282  97.4666 0004844  62.0869 298.0868 15.39788112530184
SKYSAT-C3               
1 41774U 16058E   26071.59552594  .00021872  00000+0  41287-3 0  9997
2 41774  96.9179 106.3442 0001758 112.3442 247.7996 15.48464956531144
SKYSAT-C11              
1 42987U 17068A   26071.81050129  .00034500  00000+0  56075-3 0  9991
2 42987  97.4206 216.8986 0000532  77.8422 282.2891 15.52628000468267
SKYSAT-C10              
1 42988U 17068B   26071.80023692  .00012625  00000+0  40126-3 0  9990
2 42988  97.4337 207.9265 0000990  93.6981 266.4374 15.32763192467582
SKYSAT-C8               
1 42990U 17068D   26071.32403326  .00013821  00000+0  41111-3 0  9990
2 42990  97.4356 206.8952 0001210  95.1947 264.9434 15.34849583467448
SKYSAT-C7               
1 42991U 17068E   26071.83577893  .00013397  00000+0  39873-3 0  9998
2 42991  97.4367 208.3947 0007304  94.2199 265.9879 15.34815519467582
SKYSAT-C6               
1 42992U 17068F   26071.37963448  .00012741  00000+0  40730-3 0  9999
2 42992  97.4399 208.2118 0003714 121.7106 238.4499 15.32572512467485
AEHF-4 (USA 288)        
1 43651U 18079A   26071.84372580 -.00000273  00000+0  00000+0 0  9998
2 43651   1.4222 355.3714 0064009 359.1771  52.1495  1.00270539 27330
SKYSAT-C12              
1 43797U 18099AR  26071.99557348  .00019288  00000+0  40006-3 0  9993
2 43797  96.9381  99.2636 0005818 129.5455 230.6311 15.45733636406982
AEHF-5 (USA 292)        
1 44481U 19051A   26071.80402397 -.00000256  00000+0  00000+0 0  9998
2 44481   1.5539 329.2482 0071225   3.3882 220.3078  1.00269627 24299
